{
  "id": 421175823,
  "type": "Feature",
  "properties": {
    "edtf:cessation":"uuuu",
    "edtf:inception":"uuuu",
    "geom:area":0.009165,
    "geom:area_square_m":111492188.603952,
    "geom:bbox":"123.798159,10.259725,123.931003,10.380919",
    "geom:latitude":10.323817,
    "geom:longitude":123.864426,
    "iso:country":"PH",
    "lbl:latitude":10.296323,
    "lbl:longitude":123.898304,
    "lbl:max_zoom":13.0,
    "lbl:min_zoom":7.0,
    "mps:latitude":10.325061,
    "mps:longitude":123.865443,
    "mz:hierarchy_label":1,
    "mz:is_current":1,
    "mz:min_zoom":4.0,
    "mz:note":"quattroshapes points import (201603)",
    "name:afr_x_preferred":[
        "Cebu Stad"
    ],
    "name:ami_x_preferred":[
        "Cebu City"
    ],
    "name:ang_x_preferred":[
        "Cebu City"
    ],
    "name:ara_x_preferred":[
        "\u0645\u062f\u064a\u0646\u0629 \u0633\u064a\u0628\u0648"
    ],
    "name:arz_x_preferred":[
        "\u0633\u064a\u0628\u0648"
    ],
    "name:aze_x_preferred":[
        "Sebu"
    ],
    "name:ban_x_preferred":[
        "Cebu City"
    ],
    "name:bbc_x_preferred":[
        "Cebu City"
    ],
    "name:bcl_x_preferred":[
        "Syudad nin Cebu"
    ],
    "name:bel_x_preferred":[
        "\u0421\u0435\u0431\u0443"
    ],
    "name:ben_x_preferred":[
        "\u09b8\u09c7\u09ac\u09c1 \u09b6\u09b9\u09b0"
    ],
    "name:ben_x_variant":[
        "\u09b8\u09c7\u09ac\u09c1"
    ],
    "name:bjn_x_preferred":[
        "Cebu City"
    ],
    "name:bto_x_preferred":[
        "Cebu City"
    ],
    "name:bug_x_preferred":[
        "Cebu City"
    ],
    "name:bul_x_preferred":[
        "\u0421\u0435\u0431\u0443"
    ],
    "name:cat_x_preferred":[
        "Cebu"
    ],
    "name:cat_x_variant":[
        "Ceb\u00fa",
        "Cebu City"
    ],
    "name:cbk_zam_x_preferred":[
        "Ciudad de Cebu"
    ],
    "name:ceb_x_preferred":[
        "Dakbayan sa Sugbo"
    ],
    "name:ces_x_preferred":[
        "Cebu City"
    ],
    "name:che_x_preferred":[
        "\u0421\u0435\u0431\u0443"
    ],
    "name:cps_x_preferred":[
        "Cebu City"
    ],
    "name:cym_x_preferred":[
        "Cebu City"
    ],
    "name:dag_x_preferred":[
        "Cebu City"
    ],
    "name:dan_x_preferred":[
        "Cebu City"
    ],
    "name:deu_x_preferred":[
        "Cebu City"
    ],
    "name:deu_x_variant":[
        "City of Cebu"
    ],
    "name:diq_x_preferred":[
        "Cebu"
    ],
    "name:ell_x_preferred":[
        "\u039a\u03b5\u03bc\u03c0\u03bf\u03cd \u03a3\u03af\u03c4\u03b9"
    ],
    "name:ell_x_variant":[
        "\u03a3\u03b5\u03bc\u03c0\u03bf\u03cd \u03a3\u03af\u03c4\u03b9"
    ],
    "name:eng_x_preferred":[
        "City of Cebu"
    ],
    "name:eng_x_variant":[
        "Cebu City"
    ],
    "name:epo_x_preferred":[
        "Cebuurbo"
    ],
    "name:epo_x_variant":[
        "Cebu City"
    ],
    "name:eus_x_preferred":[
        "Cebu Hiria"
    ],
    "name:eus_x_variant":[
        "Cebu City"
    ],
    "name:fas_x_preferred":[
        "\u0633\u0628\u0648"
    ],
    "name:fij_x_preferred":[
        "Cebu City"
    ],
    "name:fin_x_preferred":[
        "Cebu"
    ],
    "name:fra_x_preferred":[
        "Cebu"
    ],
    "name:gle_x_preferred":[
        "Cebu City"
    ],
    "name:glg_x_preferred":[
        "Ceb\u00fa"
    ],
    "name:gor_x_preferred":[
        "Cebu City"
    ],
    "name:guj_x_preferred":[
        "\u0ab8\u0ac7\u0aac\u0ac1 \u0ab6\u0ab9\u0ac7\u0ab0"
    ],
    "name:hau_x_preferred":[
        "Cebu City"
    ],
    "name:heb_x_preferred":[
        "\u05e1\u05d1\u05d5 \u05e1\u05d9\u05d8\u05d9"
    ],
    "name:hin_x_preferred":[
        "\u0938\u0947\u092c\u0941 \u0938\u093f\u091f\u0940"
    ],
    "name:hmo_x_preferred":[
        "Cebu City"
    ],
    "name:hrv_x_preferred":[
        "Cebu"
    ],
    "name:hun_x_preferred":[
        "Cebu"
    ],
    "name:hye_x_preferred":[
        "\u054d\u0565\u0562\u0578\u0582"
    ],
    "name:ibo_x_preferred":[
        "Cebu City"
    ],
    "name:ilo_x_preferred":[
        "Siudad ti Cebu"
    ],
    "name:ilo_x_variant":[
        "Cebu"
    ],
    "name:ind_x_preferred":[
        "Kota Cebu"
    ],
    "name:ind_x_variant":[
        "Cebu City"
    ],
    "name:ita_x_preferred":[
        "Cebu"
    ],
    "name:jam_x_preferred":[
        "Cebu City"
    ],
    "name:jav_x_preferred":[
        "Cebu City"
    ],
    "name:jpn_x_preferred":[
        "\u30bb\u30d6"
    ],
    "name:jpn_x_variant":[
        "\u30bb\u30d6\u5e02"
    ],
    "name:kan_x_preferred":[
        "\u0cb8\u0cc6\u0cac\u0cc1 \u0ca8\u0c97\u0cb0"
    ],
    "name:kat_x_preferred":[
        "\u10e1\u10d4\u10d1\u10e3"
    ],
    "name:kon_x_preferred":[
        "Cebu City"
    ],
    "name:kor_x_preferred":[
        "\uc138\ubd80"
    ],
    "name:krj_x_preferred":[
        "Sugbo"
    ],
    "name:lat_x_preferred":[
        "Cebu City"
    ],
    "name:lat_x_variant":[
        "Caebua"
    ],
    "name:lav_x_preferred":[
        "Sebu"
    ],
    "name:lit_x_preferred":[
        "Sebu"
    ],
    "name:mar_x_preferred":[
        "\u0938\u0947\u092c\u0941 \u0936\u0939\u0930"
    ],
    "name:min_x_preferred":[
        "Cebu City"
    ],
    "name:mkd_x_preferred":[
        "\u0421\u0435\u0431\u0443"
    ],
    "name:mlg_x_preferred":[
        "Cebu City"
    ],
    "name:mon_x_preferred":[
        "\u0421\u0435\u0431\u0443"
    ],
    "name:mri_x_preferred":[
        "Cebu City"
    ],
    "name:msa_x_preferred":[
        "Bandar Cebu"
    ],
    "name:mya_x_preferred":[
        "\u1005\u102e\u1018\u1030\u1038\u1019\u103c\u102d\u102f\u1037"
    ],
    "name:nah_x_preferred":[
        "Cebu City"
    ],
    "name:nan_x_preferred":[
        "Cebu Chh\u012b"
    ],
    "name:nau_x_preferred":[
        "Cebu City"
    ],
    "name:nld_x_preferred":[
        "Cebu City"
    ],
    "name:nno_x_preferred":[
        "Byen Cebu"
    ],
    "name:nob_x_preferred":[
        "Cebu City"
    ],
    "name:nor_x_preferred":[
        "Cebu City"
    ],
    "name:nor_x_variant":[
        "Cebu"
    ],
    "name:oci_x_preferred":[
        "Cebu"
    ],
    "name:orm_x_preferred":[
        "Cebu City"
    ],
    "name:oss_x_preferred":[
        "\u0421\u0435\u0431\u0443"
    ],
    "name:pag_x_preferred":[
        "Siyudad na Cebu"
    ],
    "name:pam_x_preferred":[
        "Cebu Lakanbalen"
    ],
    "name:pol_x_preferred":[
        "Cebu"
    ],
    "name:por_br_x_preferred":[
        "Cebu"
    ],
    "name:por_x_preferred":[
        "Cebu"
    ],
    "name:pwn_x_preferred":[
        "Cebu City"
    ],
    "name:ron_x_preferred":[
        "Cebu"
    ],
    "name:ron_x_variant":[
        "Ceb\u00fa"
    ],
    "name:rus_x_preferred":[
        "\u0421\u0435\u0431\u0443"
    ],
    "name:sco_x_preferred":[
        "Cebu Ceety"
    ],
    "name:sco_x_variant":[
        "Cebu City"
    ],
    "name:sin_x_preferred":[
        "\u0dc3\u0dd9\u0db6\u0dd4 \u0db1\u0d9c\u0dbb\u0dba"
    ],
    "name:smo_x_preferred":[
        "Cebu City"
    ],
    "name:spa_x_preferred":[
        "Ceb\u00fa"
    ],
    "name:spa_x_variant":[
        "Ciudad de Ceb\u00fa"
    ],
    "name:sun_x_preferred":[
        "Cebu City"
    ],
    "name:swa_x_preferred":[
        "Cebu City"
    ],
    "name:swe_x_preferred":[
        "Cebu City"
    ],
    "name:szl_x_preferred":[
        "Cebu City"
    ],
    "name:szy_x_preferred":[
        "Cebu City"
    ],
    "name:tah_x_preferred":[
        "Cebu City"
    ],
    "name:tam_x_preferred":[
        "\u0b9a\u0bc6\u0baa\u0bc1 \u0ba8\u0b95\u0bb0\u0bae\u0bcd"
    ],
    "name:tat_x_preferred":[
        "\u0421\u0435\u0431\u0443-\u0421\u0438\u0442\u0438"
    ],
    "name:tel_x_preferred":[
        "\u0c38\u0c46\u0c2c\u0c41 \u0c38\u0c3f\u0c1f\u0c40"
    ],
    "name:tet_x_preferred":[
        "Cebu City"
    ],
    "name:tgl_x_preferred":[
        "Lungsod ng Cebu"
    ],
    "name:tha_x_preferred":[
        "\u0e40\u0e0b\u0e1a\u0e39\u0e0b\u0e34\u0e15\u0e35\u0e49"
    ],
    "name:tha_x_variant":[
        "\u0e40\u0e0b\u0e1a\u0e39"
    ],
    "name:tpi_x_preferred":[
        "Cebu City"
    ],
    "name:tur_x_preferred":[
        "Cebu City"
    ],
    "name:ukr_x_preferred":[
        "\u0421\u0435\u0431\u0443"
    ],
    "name:urd_x_preferred":[
        "\u06a9\u06cc\u0628\u0648"
    ],
    "name:urd_x_variant":[
        "\u0633\u06cc\u0628\u0648 \u0634\u06c1\u0631"
    ],
    "name:uzb_x_preferred":[
        "Sebu"
    ],
    "name:vec_x_preferred":[
        "Seb\u00f9"
    ],
    "name:vie_x_preferred":[
        "Cebu"
    ],
    "name:war_x_preferred":[
        "Syudad han Sugbo"
    ],
    "name:war_x_variant":[
        "Syudad Sugbo"
    ],
    "name:wuu_x_preferred":[
        "\u5bbf\u52a1\u5e02"
    ],
    "name:xho_x_preferred":[
        "Cebu City"
    ],
    "name:xmf_x_preferred":[
        "\u10e1\u10d4\u10d1\u10e3"
    ],
    "name:yid_x_preferred":[
        "\u05e1\u05e2\u05d1\u05d5"
    ],
    "name:yor_x_preferred":[
        "Cebu City"
    ],
    "name:yue_x_preferred":[
        "\u5bbf\u9727"
    ],
    "name:zho_cn_x_preferred":[
        "\u5bbf\u52a1\u5c9b"
    ],
    "name:zho_tw_x_preferred":[
        "\u5bbf\u9727"
    ],
    "name:zho_x_preferred":[
        "\u5bbf\u9727\u5e02"
    ],
    "name:zho_yue_x_preferred":[
        "\u5bbf\u9727"
    ],
    "name:zul_x_preferred":[
        "Cebu City"
    ],
    "ne:ADM0CAP":0.0,
    "ne:ADM0NAME":"Philippines",
    "ne:ADM0_A3":"PHL",
    "ne:ADM1NAME":"Cebu",
    "ne:ADMIN1_COD":0,
    "ne:CAPALT":0,
    "ne:CAPIN":null,
    "ne:CHANGED":0,
    "ne:CHECKME":0,
    "ne:CITYALT":null,
    "ne:COMPARE":0,
    "ne:DIFFASCII":0,
    "ne:DIFFNOTE":null,
    "ne:ELEVATION":0.0,
    "ne:FEATURECLA":"Populated place",
    "ne:FEATURE_CL":"P",
    "ne:FEATURE_CO":"PPL",
    "ne:GEONAMEID":1717512,
    "ne:GEONAMESNO":"GeoNames spatial join with similar names only.",
    "ne:GN_ASCII":"Cebu City",
    "ne:GN_POP":798634,
    "ne:GTOPO30":27.0,
    "ne:ISO_A2":"PH",
    "ne:LABELRANK":5,
    "ne:LATITUDE":10.319976,
    "ne:LONGITUDE":123.900075,
    "ne:LS_MATCH":1,
    "ne:LS_NAME":"Cebu",
    "ne:MAX_AREAKM":260.0,
    "ne:MAX_AREAMI":100.0,
    "ne:MAX_BBXMAX":124.025,
    "ne:MAX_BBXMIN":123.7,
    "ne:MAX_BBYMAX":10.441667,
    "ne:MAX_BBYMIN":10.166667,
    "ne:MAX_NATSCA":100.0,
    "ne:MAX_PERKM":194.0,
    "ne:MAX_PERMI":121.0,
    "ne:MAX_POP10":2516974,
    "ne:MAX_POP20":2516974,
    "ne:MAX_POP300":2516974,
    "ne:MAX_POP310":0,
    "ne:MAX_POP50":2516974,
    "ne:MEAN_BBXC":123.900661,
    "ne:MEAN_BBYC":10.307376,
    "ne:MEGACITY":1,
    "ne:MEGANAME":"Cebu",
    "ne:MIN_AREAKM":260.0,
    "ne:MIN_AREAMI":100.0,
    "ne:MIN_BBXMAX":124.025,
    "ne:MIN_BBXMIN":123.7,
    "ne:MIN_BBYMAX":10.441667,
    "ne:MIN_BBYMIN":10.166667,
    "ne:MIN_PERKM":194.0,
    "ne:MIN_PERMI":121.0,
    "ne:NAME":"Cebu",
    "ne:NAMEALT":null,
    "ne:NAMEASCII":"Cebu",
    "ne:NAMEDIFF":0,
    "ne:NAMEPAR":null,
    "ne:NATSCALE":110,
    "ne:NOTE":null,
    "ne:POP1950":178,
    "ne:POP1955":213,
    "ne:POP1960":254,
    "ne:POP1965":298,
    "ne:POP1970":349,
    "ne:POP1975":415,
    "ne:POP1980":492,
    "ne:POP1985":549,
    "ne:POP1990":612,
    "ne:POP1995":661,
    "ne:POP2000":721,
    "ne:POP2005":787,
    "ne:POP2010":815,
    "ne:POP2015":862,
    "ne:POP2020":960,
    "ne:POP2025":1062,
    "ne:POP2050":1153,
    "ne:POP_MAX":815000,
    "ne:POP_MIN":798634,
    "ne:POP_OTHER":2500569,
    "ne:RANK_MAX":11,
    "ne:RANK_MIN":11,
    "ne:SCALERANK":3,
    "ne:SOV0NAME":"Philippines",
    "ne:SOV_A3":"PHL",
    "ne:TIMEZONE":"Asia/Manila",
    "ne:UN_ADM0":"Philippines",
    "ne:UN_FID":412,
    "ne:UN_LAT":10.42,
    "ne:UN_LONG":123.79,
    "ne:WORLDCITY":0,
    "qs:gn_country":"PH",
    "qs:gn_fcode":"PPLA",
    "qs:gn_id":1717512,
    "qs:gn_pop":798634,
    "qs:name":"Cebu",
    "qs:name_adm0":"Philippines",
    "qs:name_adm1":"Central Visayas",
    "qs:photos":3557,
    "qs:photos_1k":721,
    "qs:photos_9k":66,
    "qs:photos_9r":18,
    "qs:photos_all":14906,
    "qs:photos_sr":21,
    "qs:placetype":"Town",
    "qs:pop_sr":"11",
    "qs:qs_id":1032883,
    "qs:woe_adm0":23424934,
    "qs:woe_id":1199079,
    "src:geom":"whosonfirst",
    "src:geom_alt":[
        "quattroshapes"
    ],
    "src:lbl_centroid":"whosonfirst",
    "src:population":"quattroshapes",
    "wd:wordcount":5136,
    "wof:belongsto":[
        102191569,
        85632509,
        890432909,
        85675939
    ],
    "wof:breaches":[],
    "wof:concordances":{
        "gn:id":1717511,
        "gp:id":1199079,
        "loc:id":"n82242501",
        "ne:id":1159150721,
        "qs_pg:id":1032883,
        "wd:id":"Q1467",
        "wk:page":"Cebu City"
    },
    "wof:country":"PH",
    "wof:created":1459009081,
    "wof:geom_alt":[
        "quattroshapes"
    ],
    "wof:geomhash":"57cffbc684e510c9fb7ad641073aa3b5",
    "wof:hierarchy":[
        {
            "continent_id":102191569,
            "country_id":85632509,
            "county_id":890432909,
            "locality_id":421175823,
            "region_id":85675939
        }
    ],
    "wof:id":421175823,
    "wof:lastmodified":1764690137,
    "wof:megacity":1,
    "wof:name":"Cebu",
    "wof:parent_id":890432909,
    "wof:placetype":"locality",
    "wof:population":798634,
    "wof:population_rank":11,
    "wof:repo":"whosonfirst-data-admin-ph",
    "wof:superseded_by":[],
    "wof:supersedes":[],
    "wof:tags":[]
},
  "bbox": [
    123.798159,
    10.259725,
    123.931003,
    10.380919
],
  "geometry": {"coordinates":[[[123.873306,10.259725],[123.869856,10.262375],[123.86835600000001,10.262325],[123.866606,10.262925],[123.863606,10.264125],[123.861006,10.264525],[123.85860599999999,10.265125],[123.85720600000001,10.265125],[123.855406,10.265125],[123.852807,10.267325],[123.852007,10.267925],[123.85000700000001,10.269324],[123.84840699999999,10.269924],[123.847207,10.272524],[123.846407,10.274324],[123.84540699999999,10.276324],[123.84360700000001,10.278524],[123.84240699999999,10.279724],[123.839607,10.280924],[123.836607,10.281524],[123.83340800000001,10.283524],[123.832408,10.284724],[123.829808,10.287724],[123.823408,10.292523],[123.819608,10.296323],[123.81500800000001,10.297523],[123.81380799999999,10.300123],[123.81380799999999,10.304723],[123.815608,10.309122],[123.817408,10.313122],[123.817758,10.316272],[123.81895799999999,10.319022],[123.82140800000001,10.319922],[123.82105799999999,10.321172],[123.820058,10.321922],[123.820858,10.323722],[123.819558,10.325622],[123.816858,10.327222],[123.816408,10.328722],[123.815558,10.329771],[123.81455800000001,10.329072],[123.814758,10.327922],[123.814108,10.327422],[123.812709,10.328822],[123.81085899999999,10.329072],[123.809009,10.327522],[123.80820900000001,10.328772],[123.808909,10.331021],[123.806759,10.331771],[123.807959,10.333471],[123.808459,10.334521],[123.808109,10.335221],[123.807159,10.335121],[123.80745899999999,10.334271],[123.806809,10.333321],[123.80575899999999,10.333721],[123.805159,10.334771],[123.804309,10.334621],[123.803409,10.334171],[123.804109,10.333221],[123.80315899999999,10.332471],[123.80225900000001,10.332921],[123.80185899999999,10.334121],[123.802359,10.336521],[123.800009,10.336321],[123.798159,10.337371],[123.80100899999999,10.342321],[123.802559,10.345021],[123.804209,10.346721],[123.809409,10.347921],[123.81300899999999,10.35092],[123.814408,10.35352],[123.818208,10.35552],[123.820408,10.35672],[123.820408,10.35812],[123.821808,10.36012],[123.82400800000001,10.35912],[123.825408,10.35972],[123.827208,10.36272],[123.829008,10.36452],[123.830608,10.36612],[123.832808,10.36812],[123.83940699999999,10.36932],[123.843007,10.371119],[123.84660700000001,10.373119],[123.84960700000001,10.374519],[123.853807,10.375719],[123.858006,10.377119],[123.861206,10.377319],[123.86200599999999,10.379319],[123.866006,10.380919],[123.867806,10.380119],[123.869606,10.378919],[123.871606,10.379519],[123.874206,10.380119],[123.880005,10.374719],[123.883205,10.36812],[123.885605,10.36632],[123.889805,10.36592],[123.893405,10.36592],[123.900004,10.36692],[123.90380399999999,10.36512],[123.905804,10.36112],[123.906004,10.35632],[123.90420399999999,10.35532],[123.90420399999999,10.348121],[123.909004,10.343921],[123.91280399999999,10.341521],[123.915404,10.339121],[123.91700299999999,10.335921],[123.916803,10.333321],[123.91655299999999,10.331371],[123.917253,10.330471],[123.918603,10.329721],[123.92035300000001,10.329372],[123.921903,10.327622],[123.92335300000001,10.324672],[123.925453,10.321972],[123.926203,10.319922],[123.928203,10.317322],[123.931003,10.313922],[123.92340299999999,10.307923],[123.913804,10.300723],[123.91020399999999,10.296123],[123.90975400000001,10.295673],[123.906954,10.291173],[123.903504,10.291273],[123.900554,10.290373],[123.899204,10.289523],[123.89815400000001,10.288524],[123.89650399999999,10.288274],[123.894205,10.288374],[123.890405,10.287924],[123.889155,10.287624],[123.882605,10.281174],[123.880955,10.277324],[123.880205,10.274524],[123.880055,10.273724],[123.88075499999999,10.273024],[123.882255,10.272574],[123.882705,10.271624],[123.88160499999999,10.270274],[123.881805,10.269424],[123.877055,10.264125],[123.873306,10.259725]]],"type":"Polygon"}
}